METOP-A                 
1 29499U 06044A   22021.59080821  .00000470  00000-0  70831-4 0  9991
2 29499  98.4715  61.4088 0200071 108.1543   9.7746 14.66895671791999
